NORAD_CAT_ID,OBJECT_NAME,OBJECT_TYPE,EPOCH,MEAN_MOTION,ECCENTRICITY,INCLINATION,RA_OF_ASC_NODE,ARG_OF_PERICENTER,MEAN_ANOMALY,BSTAR,MEAN_MOTION_DOT,MEAN_MOTION_DDOT,TLE_LINE0,TLE_LINE1,TLE_LINE2,SEMIMAJOR_AXIS,PERIOD,APOGEE,PERIGEE,DECAYED
55742.0,STARLINK-5594,PAYLOAD,2023-06-08 09:33:02,14.98330807,0.0003244,69.9997,259.2959,267.238,92.8407,-1.2121e-05,-2.38e-06,0.0,0 STARLINK-5594,1 55742U 23028B   23159.39794490 -.00000238  00000-0 -12121-4 0  9999,2 55742  69.9997 259.2959 0003244 267.2380  92.8407 14.98330807 15454,6950.19,96.107,574.31,569.801,0.0
55742.0,STARLINK-5594,PAYLOAD,2023-06-08 12:45:18,14.98329985,0.0003271,69.9997,258.9592,267.2809,92.7976,-2.2326e-05,-3.59e-06,0.0,0 STARLINK-5594,1 55742U 23028B   23159.53146563 -.00000359  00000-0 -22326-4 0  9999,2 55742  69.9997 258.9592 0003271 267.2809  92.7976 14.98329985 15476,6950.193,96.107,574.331,569.785,0.0
55742.0,STARLINK-5594,PAYLOAD,2023-06-09 12:47:19,14.983276,0.000342,69.9991,256.434,269.0092,91.0675,-2.6715e-06,-1.25e-06,0.0,0 STARLINK-5594,1 55742U 23028B   23160.53286702 -.00000125  00000-0 -26715-5 0  9999,2 55742  69.9991 256.4340 0003420 269.0092  91.0675 14.98327600 15621,6950.2,96.107,574.442,569.688,0.0
55742.0,STARLINK-5594,PAYLOAD,2023-06-09 15:59:35,14.98327889,0.0003404,69.9992,256.0975,269.0835,90.9933,2.1579e-06,-6.7e-07,0.0,0 STARLINK-5594,1 55742U 23028B   23160.66638689 -.00000067  00000-0  21579-5 0  9995,2 55742  69.9992 256.0975 0003404 269.0835  90.9933 14.98327889 15645,6950.199,96.107,574.43,569.699,0.0
55742.0,STARLINK-5594,PAYLOAD,2023-06-10 12:49:20,14.98331258,0.0003416,69.999,253.9085,267.8761,92.2007,3.6908e-05,3.47e-06,0.0,0 STARLINK-5594,1 55742U 23028B   23161.53426442  .00000347  00000-0  36908-4 0  9995,2 55742  69.9990 253.9085 0003416 267.8761  92.2007 14.98331258 15774,6950.189,96.107,574.428,569.68,0.0
55742.0,STARLINK-5594,PAYLOAD,2023-06-10 14:25:28,14.98330692,0.0003441,69.9991,253.7403,268.0209,92.0556,2.7529e-05,2.35e-06,0.0,0 STARLINK-5594,1 55742U 23028B   23161.60102503  .00000235  00000-0  27529-4 0  9997,2 55742  69.9991 253.7403 0003441 268.0209  92.0556 14.98330692 15784,6950.191,96.107,574.447,569.664,0.0
55742.0,STARLINK-5594,PAYLOAD,2023-06-11 12:51:21,14.9833358,0.0003442,69.9992,251.3837,268.3694,91.7071,6.6563e-05,7.01e-06,0.0,0 STARLINK-5594,1 55742U 23028B   23162.53566142  .00000701  00000-0  66563-4 0  9992,2 55742  69.9992 251.3837 0003442 268.3694  91.7071 14.98333580 15925,6950.182,96.107,574.439,569.655,0.0
55742.0,STARLINK-5594,PAYLOAD,2023-06-11 16:03:37,14.98333052,0.0003469,69.9992,251.0472,268.6003,91.4759,5.6972e-05,5.87e-06,0.0,0 STARLINK-5594,1 55742U 23028B   23162.66918180  .00000587  00000-0  56972-4 0  9994,2 55742  69.9992 251.0472 0003469 268.6003  91.4759 14.98333052 15949,6950.183,96.107,574.459,569.637,0.0
55742.0,STARLINK-5594,PAYLOAD,2023-06-12 09:41:06,14.98331631,0.0003471,69.9991,249.1957,268.2263,91.8499,2.0027e-05,1.46e-06,0.0,0 STARLINK-5594,1 55742U 23028B   23163.40354260  .00000146  00000-0  20027-4 0  9993,2 55742  69.9991 249.1957 0003471 268.2263  91.8499 14.98331631 16050,6950.188,96.107,574.465,569.64,0.0
55742.0,STARLINK-5594,PAYLOAD,2023-06-12 22:30:10,14.98332939,0.000347,69.9992,247.8492,268.9229,91.1532,2.2814e-05,1.79e-06,0.0,0 STARLINK-5594,1 55742U 23028B   23163.93762044  .00000179  00000-0  22814-4 0  9996,2 55742  69.9992 247.8492 0003470 268.9229  91.1532 14.98332939 16130,6950.184,96.107,574.461,569.637,0.0
55742.0,STARLINK-5594,PAYLOAD,2023-06-13 06:30:51,14.98329783,0.0003338,69.9994,247.0078,270.4028,89.6749,-4.996e-05,-6.89e-06,0.0,0 STARLINK-5594,1 55742U 23028B   23164.27142450 -.00000689  00000-0 -49960-4 0  9996,2 55742  69.9994 247.0078 0003338 270.4028  89.6749 14.98329783 16182,6950.194,96.107,574.379,569.739,0.0
55742.0,STARLINK-5594,PAYLOAD,2023-06-13 22:32:11,14.98329399,0.0003299,69.9995,245.3251,269.1281,90.95,-3.5537e-05,-5.17e-06,0.0,0 STARLINK-5594,1 55742U 23028B   23164.93902406 -.00000517  00000-0 -35537-4 0  9999,2 55742  69.9995 245.3251 0003299 269.1281  90.9500 14.98329399 16283,6950.195,96.107,574.353,569.767,0.0
55742.0,STARLINK-5594,PAYLOAD,2023-06-14 04:56:43,14.98332323,0.0003358,69.9992,244.6518,269.8516,90.2258,-1.613e-05,-2.86e-06,0.0,0 STARLINK-5594,1 55742U 23028B   23165.20606163 -.00000286  00000-0 -16130-4 0  9992,2 55742  69.9992 244.6518 0003358 269.8516  90.2258 14.98332323 16321,6950.186,96.107,574.385,569.717,0.0
55742.0,STARLINK-5594,PAYLOAD,2023-06-14 22:34:12,14.9832915,0.0003398,69.9992,242.7997,265.5012,94.5759,-2.5651e-05,-3.99e-06,0.0,0 STARLINK-5594,1 55742U 23028B   23165.94042318 -.00000399  00000-0 -25651-4 0  9992,2 55742  69.9992 242.7997 0003398 265.5012  94.5759 14.98329150 16438,6950.196,96.107,574.422,569.699,0.0
55742.0,STARLINK-5594,PAYLOAD,2023-06-15 12:59:25,14.98325139,0.0003485,69.9988,241.2848,271.2006,88.8754,-1.5474e-05,-2.78e-06,0.0,0 STARLINK-5594,1 55742U 23028B   23166.54126718 -.00000278  00000-0 -15474-4 0  9994,2 55742  69.9988 241.2848 0003485 271.2006  88.8754 14.98325139 16520,6950.208,96.107,574.495,569.651,0.0
55742.0,STARLINK-5594,PAYLOAD,2023-06-16 03:24:37,14.9832778,0.0003585,69.9986,239.7694,270.4801,89.5947,0.00010933,1.212e-05,0.0,0 STARLINK-5594,1 55742U 23028B   23167.14210212  .00001212  00000-0  10933-3 0  9995,2 55742  69.9986 239.7694 0003585 270.4801  89.5947 14.98327780 16610,6950.2,96.107,574.556,569.573,0.0
55742.0,STARLINK-5594,PAYLOAD,2023-06-16 11:25:17,14.98338351,0.0003512,69.9986,238.9277,269.7722,90.3035,0.00015794,1.792e-05,0.0,0 STARLINK-5594,1 55742U 23028B   23167.47589316  .00001792  00000-0  15794-3 0  9998,2 55742  69.9986 238.9277 0003512 269.7722  90.3035 14.98338351 16660,6950.167,96.106,574.473,569.591,0.0
55742.0,STARLINK-5594,PAYLOAD,2023-06-16 14:37:33,14.98342545,0.0003539,69.9987,238.5911,270.564,89.5114,0.00013404,1.507e-05,0.0,0 STARLINK-5594,1 55742U 23028B   23167.60941026  .00001507  00000-0  13404-3 0  9993,2 55742  69.9987 238.5911 0003539 270.5640  89.5114 14.98342545 16680,6950.154,96.106,574.479,569.559,0.0
55742.0,STARLINK-5594,PAYLOAD,2023-06-16 22:38:14,14.98325575,0.0003241,70.0013,237.7494,270.6284,89.4504,5.5495e-05,5.69e-06,0.0,0 STARLINK-5594,1 55742U 23028B   23167.94322244  .00000569  00000-0  55495-4 0  9999,2 55742  70.0013 237.7494 0003241 270.6284  89.4504 14.98325575 16737,6950.207,96.107,574.324,569.819,0.0
55742.0,STARLINK-5594,PAYLOAD,2023-06-17 11:27:19,14.98324676,0.0003487,69.9987,236.4026,267.4878,92.5882,-1.6812e-05,-2.94e-06,0.0,0 STARLINK-5594,1 55742U 23028B   23168.47730557 -.00000294  00000-0 -16812-4 0  9995,2 55742  69.9987 236.4026 0003487 267.4878  92.5882 14.98324676 16810,6950.209,96.107,574.498,569.651,0.0
55742.0,STARLINK-5594,PAYLOAD,2023-06-17 14:39:35,14.98324094,0.0003583,69.9986,236.0663,267.7171,92.3578,-1.9721e-05,-3.28e-06,0.0,0 STARLINK-5594,1 55742U 23028B   23168.61082644 -.00000328  00000-0 -19721-4 0  9998,2 55742  69.9986 236.0663 0003583 267.7171  92.3578 14.98324094 16834,6950.211,96.107,574.566,569.586,0.0
55742.0,STARLINK-5594,PAYLOAD,2023-06-18 03:28:39,14.98334114,0.0003589,69.9986,234.7197,267.4737,92.6012,-4.8499e-05,-6.72e-06,0.0,0 STARLINK-5594,1 55742U 23028B   23169.14490130 -.00000672  00000-0 -48499-4 0  9996,2 55742  69.9986 234.7197 0003589 267.4737  92.6012 14.98334114 16911,6950.18,96.107,574.54,569.551,0.0
55742.0,STARLINK-5594,PAYLOAD,2023-06-18 22:00:00,14.98320355,0.0003741,69.9998,232.7736,268.0687,293.7886,0.00028114,3.262e-05,0.0,0 STARLINK-5594,1 55742U 23028B   23169.91667824  .00003262  00000-0  28114-3 0  9994,2 55742  69.9998 232.7736 0003741 268.0687 293.7886 14.98320355  1304,6950.223,96.108,574.688,569.488,0.0
55742.0,STARLINK-5594,PAYLOAD,2023-06-19 00:00:00,14.98293497,0.0003747,69.9998,232.5635,266.7187,24.5153,0.0054474,0.00065456,0.0,0 STARLINK-5594,1 55742U 23028B   23170.00001157  .00065456  00000-0  54474-2 0  9997,2 55742  69.9998 232.5635 0003747 266.7187  24.5153 14.98293497 17036,6950.306,96.109,574.775,569.566,0.0
55742.0,STARLINK-5594,PAYLOAD,2023-06-19 05:06:48,14.98326365,0.0003609,69.9985,232.0265,266.1863,93.8884,7.5253e-05,8.05e-06,0.0,0 STARLINK-5594,1 55742U 23028B   23170.21305992  .00000805  00000-0  75253-4 0  9991,2 55742  69.9985 232.0265 0003609 266.1863  93.8884 14.98326365 17073,6950.204,96.107,574.577,569.561,0.0
55742.0,STARLINK-5594,PAYLOAD,2023-06-19 08:19:04,14.98326333,0.0003613,69.9985,231.6898,266.1113,93.9633,7.1785e-05,7.63e-06,0.0,0 STARLINK-5594,1 55742U 23028B   23170.34658025  .00000763  00000-0  71785-4 0  9992,2 55742  69.9985 231.6898 0003613 266.1113  93.9633 14.98326333 17093,6950.204,96.107,574.58,569.558,0.0
55742.0,STARLINK-5594,PAYLOAD,2023-06-20 09:57:13,14.98329883,0.0003502,69.9988,228.9968,267.1712,92.9046,-2.7277e-05,-4.19e-06,0.0,0 STARLINK-5594,1 55742U 23028B   23171.41474150 -.00000419  00000-0 -27277-4 0  9993,2 55742  69.9988 228.9968 0003502 267.1712  92.9046 14.98329883 17254,6950.193,96.107,574.492,569.624,0.0
55742.0,STARLINK-5594,PAYLOAD,2023-06-21 11:35:22,14.98328702,0.0003455,69.999,226.3041,267.9923,92.084,-8.3083e-06,-1.92e-06,0.0,0 STARLINK-5594,1 55742U 23028B   23172.48290143 -.00000192  00000-0 -83083-5 0  9995,2 55742  69.9990 226.3041 0003455 267.9923  92.0840 14.98328702 17410,6950.197,96.107,574.463,569.661,0.0
55742.0,STARLINK-5594,PAYLOAD,2023-06-21 13:11:30,14.98329289,0.0003467,69.9989,226.1358,268.0242,92.052,-3.4771e-06,-1.35e-06,0.0,0 STARLINK-5594,1 55742U 23028B   23172.54966094 -.00000135  00000-0 -34771-5 0  9994,2 55742  69.9989 226.1358 0003467 268.0242  92.0520 14.98329289 17423,6950.195,96.107,574.47,569.65,0.0
55742.0,STARLINK-5594,PAYLOAD,2023-06-22 13:13:31,14.98338313,0.0004766,69.9984,223.6098,271.2414,88.8199,-7.8125e-05,-1.026e-05,0.0,0 STARLINK-5594,1 55742U 23028B   23173.55105628 -.00001026  00000-0 -78125-4 0  9994,2 55742  69.9984 223.6098 0004766 271.2414  88.8199 14.98338313 17570,6950.167,96.106,575.345,568.72,0.0
